CCSDS_OMM_VERS = 2.0
CREATION_DATE  = 
ORIGINATOR     = 

OBJECT_NAME    = STARLINK-36383
OBJECT_ID      = 2026-036U
CENTER_NAME    = EARTH
REF_FRAME      = TEME
TIME_SYSTEM    = UTC
MEAN_ELEMENT_THEORY = SGP/SGP4

EPOCH          = 2026-03-18T17:26:02.561856
MEAN_MOTION    = 15.82042938
ECCENTRICITY   = .0001514
INCLINATION    = 43.0001
RA_OF_ASC_NODE = 194.2338
ARG_OF_PERICENTER = 246.0133
MEAN_ANOMALY   = 114.0581

EPHEMERIS_TYPE = 0
CLASSIFICATION_TYPE = U
NORAD_CAT_ID   = 67922
ELEMENT_SET_NO = 999
REV_AT_EPOCH   = 510
BSTAR          = .21844E-2
MEAN_MOTION_DOT = .48689E-2
MEAN_MOTION_DDOT = 0

CCSDS_OMM_VERS = 2.0
CREATION_DATE  = 
ORIGINATOR     = 

OBJECT_NAME    = STARLINK-36406
OBJECT_ID      = 2026-036V
CENTER_NAME    = EARTH
REF_FRAME      = TEME
TIME_SYSTEM    = UTC
MEAN_ELEMENT_THEORY = SGP/SGP4

EPOCH          = 2026-03-18T20:00:01.999008
MEAN_MOTION    = 15.50491296
ECCENTRICITY   = .0002012
INCLINATION    = 43.0006
RA_OF_ASC_NODE = 195.6158
ARG_OF_PERICENTER = 282.8487
MEAN_ANOMALY   = 225.3017

EPHEMERIS_TYPE = 0
CLASSIFICATION_TYPE = U
NORAD_CAT_ID   = 67923
ELEMENT_SET_NO = 999
REV_AT_EPOCH   = 511
BSTAR          = .15147E-2
MEAN_MOTION_DOT = .89259E-3
MEAN_MOTION_DDOT = 0

CCSDS_OMM_VERS = 2.0
CREATION_DATE  = 
ORIGINATOR     = 

OBJECT_NAME    = STARLINK-36714
OBJECT_ID      = 2026-036W
CENTER_NAME    = EARTH
REF_FRAME      = TEME
TIME_SYSTEM    = UTC
MEAN_ELEMENT_THEORY = SGP/SGP4

EPOCH          = 2026-03-18T20:00:01.999008
MEAN_MOTION    = 15.50516705
ECCENTRICITY   = .0001808
INCLINATION    = 43.0005
RA_OF_ASC_NODE = 194.6833
ARG_OF_PERICENTER = 295.5186
MEAN_ANOMALY   = 230.0122

EPHEMERIS_TYPE = 0
CLASSIFICATION_TYPE = U
NORAD_CAT_ID   = 67924
ELEMENT_SET_NO = 999
REV_AT_EPOCH   = 511
BSTAR          = .15517E-2
MEAN_MOTION_DOT = .91557E-3
MEAN_MOTION_DDOT = 0

CCSDS_OMM_VERS = 2.0
CREATION_DATE  = 
ORIGINATOR     = 

OBJECT_NAME    = STARLINK-36726
OBJECT_ID      = 2026-036X
CENTER_NAME    = EARTH
REF_FRAME      = TEME
TIME_SYSTEM    = UTC
MEAN_ELEMENT_THEORY = SGP/SGP4

EPOCH          = 2026-03-18T20:00:01.999008
MEAN_MOTION    = 15.50520670
ECCENTRICITY   = .0001574
INCLINATION    = 43.0010
RA_OF_ASC_NODE = 195.3114
ARG_OF_PERICENTER = 280.9188
MEAN_ANOMALY   = 350.2626

EPHEMERIS_TYPE = 0
CLASSIFICATION_TYPE = U
NORAD_CAT_ID   = 67925
ELEMENT_SET_NO = 999
REV_AT_EPOCH   = 511
BSTAR          = .13972E-2
MEAN_MOTION_DOT = .82323E-3
MEAN_MOTION_DDOT = 0

CCSDS_OMM_VERS = 2.0
CREATION_DATE  = 
ORIGINATOR     = 

OBJECT_NAME    = STARLINK-36758
OBJECT_ID      = 2026-036Y
CENTER_NAME    = EARTH
REF_FRAME      = TEME
TIME_SYSTEM    = UTC
MEAN_ELEMENT_THEORY = SGP/SGP4

EPOCH          = 2026-03-18T20:00:01.999008
MEAN_MOTION    = 15.50516981
ECCENTRICITY   = .0001766
INCLINATION    = 43.0005
RA_OF_ASC_NODE = 194.8327
ARG_OF_PERICENTER = 279.4975
MEAN_ANOMALY   = 185.4148

EPHEMERIS_TYPE = 0
CLASSIFICATION_TYPE = U
NORAD_CAT_ID   = 67926
ELEMENT_SET_NO = 999
REV_AT_EPOCH   = 511
BSTAR          = .15393E-2
MEAN_MOTION_DOT = .90817E-3
MEAN_MOTION_DDOT = 0

CCSDS_OMM_VERS = 2.0
CREATION_DATE  = 
ORIGINATOR     = 

OBJECT_NAME    = STARLINK-36728
OBJECT_ID      = 2026-036Z
CENTER_NAME    = EARTH
REF_FRAME      = TEME
TIME_SYSTEM    = UTC
MEAN_ELEMENT_THEORY = SGP/SGP4

EPOCH          = 2026-03-18T20:00:01.999008
MEAN_MOTION    = 15.50462476
ECCENTRICITY   = .0001818
INCLINATION    = 43.0005
RA_OF_ASC_NODE = 194.5818
ARG_OF_PERICENTER = 306.7870
MEAN_ANOMALY   = 259.5230

EPHEMERIS_TYPE = 0
CLASSIFICATION_TYPE = U
NORAD_CAT_ID   = 67927
ELEMENT_SET_NO = 999
REV_AT_EPOCH   = 511
BSTAR          = .17836E-2
MEAN_MOTION_DOT = .105272E-2
MEAN_MOTION_DDOT = 0

CCSDS_OMM_VERS = 2.0
CREATION_DATE  = 
ORIGINATOR     = 

OBJECT_NAME    = STARLINK-36771
OBJECT_ID      = 2026-036AA
CENTER_NAME    = EARTH
REF_FRAME      = TEME
TIME_SYSTEM    = UTC
MEAN_ELEMENT_THEORY = SGP/SGP4

EPOCH          = 2026-03-18T20:00:01.999008
MEAN_MOTION    = 15.50531859
ECCENTRICITY   = .0001571
INCLINATION    = 43.0006
RA_OF_ASC_NODE = 194.7108
ARG_OF_PERICENTER = 274.8736
MEAN_ANOMALY   = 239.5014

EPHEMERIS_TYPE = 0
CLASSIFICATION_TYPE = U
NORAD_CAT_ID   = 67928
ELEMENT_SET_NO = 999
REV_AT_EPOCH   = 511
BSTAR          = .17769E-2
MEAN_MOTION_DOT = .105132E-2
MEAN_MOTION_DDOT = 0

CCSDS_OMM_VERS = 2.0
CREATION_DATE  = 
ORIGINATOR     = 

OBJECT_NAME    = STARLINK-36809
OBJECT_ID      = 2026-036AB
CENTER_NAME    = EARTH
REF_FRAME      = TEME
TIME_SYSTEM    = UTC
MEAN_ELEMENT_THEORY = SGP/SGP4

EPOCH          = 2026-03-18T20:00:01.999008
MEAN_MOTION    = 15.50518228
ECCENTRICITY   = .0001538
INCLINATION    = 43.0006
RA_OF_ASC_NODE = 194.6876
ARG_OF_PERICENTER = 266.0242
MEAN_ANOMALY   = 257.5160

EPHEMERIS_TYPE = 0
CLASSIFICATION_TYPE = U
NORAD_CAT_ID   = 67929
ELEMENT_SET_NO = 999
REV_AT_EPOCH   = 511
BSTAR          = .15546E-2
MEAN_MOTION_DOT = .91735E-3
MEAN_MOTION_DDOT = 0

CCSDS_OMM_VERS = 2.0
CREATION_DATE  = 
ORIGINATOR     = 

OBJECT_NAME    = STARLINK-36865
OBJECT_ID      = 2026-036AC
CENTER_NAME    = EARTH
REF_FRAME      = TEME
TIME_SYSTEM    = UTC
MEAN_ELEMENT_THEORY = SGP/SGP4

EPOCH          = 2026-03-18T20:00:01.999008
MEAN_MOTION    = 15.53182315
ECCENTRICITY   = .0001293
INCLINATION    = 43.0010
RA_OF_ASC_NODE = 194.3665
ARG_OF_PERICENTER = 287.6766
MEAN_ANOMALY   = 5.9643

EPHEMERIS_TYPE = 0
CLASSIFICATION_TYPE = U
NORAD_CAT_ID   = 67930
ELEMENT_SET_NO = 999
REV_AT_EPOCH   = 511
BSTAR          = -.26823E-1
MEAN_MOTION_DOT = -.1559867E-1
MEAN_MOTION_DDOT = 0

CCSDS_OMM_VERS = 2.0
CREATION_DATE  = 
ORIGINATOR     = 

OBJECT_NAME    = STARLINK-36781
OBJECT_ID      = 2026-036AD
CENTER_NAME    = EARTH
REF_FRAME      = TEME
TIME_SYSTEM    = UTC
MEAN_ELEMENT_THEORY = SGP/SGP4

EPOCH          = 2026-03-18T20:00:01.999008
MEAN_MOTION    = 15.52899684
ECCENTRICITY   = .0001682
INCLINATION    = 43.0009
RA_OF_ASC_NODE = 194.4138
ARG_OF_PERICENTER = 277.8684
MEAN_ANOMALY   = 356.5826

EPHEMERIS_TYPE = 0
CLASSIFICATION_TYPE = U
NORAD_CAT_ID   = 67931
ELEMENT_SET_NO = 999
REV_AT_EPOCH   = 511
BSTAR          = -.38118E-1
MEAN_MOTION_DOT = -.215347E-1
MEAN_MOTION_DDOT = 0

CCSDS_OMM_VERS = 2.0
CREATION_DATE  = 
ORIGINATOR     = 

OBJECT_NAME    = STARLINK-36301
OBJECT_ID      = 2026-037A
CENTER_NAME    = EARTH
REF_FRAME      = TEME
TIME_SYSTEM    = UTC
MEAN_ELEMENT_THEORY = SGP/SGP4

EPOCH          = 2026-03-17T21:54:03.057696
MEAN_MOTION    = 15.82107586
ECCENTRICITY   = .00011657
INCLINATION    = 42.9982
RA_OF_ASC_NODE = 148.1836
ARG_OF_PERICENTER = 1.0372
MEAN_ANOMALY   = 359.0502

EPHEMERIS_TYPE = 0
CLASSIFICATION_TYPE = U
NORAD_CAT_ID   = 67932
ELEMENT_SET_NO = 999
REV_AT_EPOCH   = 455
BSTAR          = .14845044E-2
MEAN_MOTION_DOT = .325484E-2
MEAN_MOTION_DDOT = 0

CCSDS_OMM_VERS = 2.0
CREATION_DATE  = 
ORIGINATOR     = 

OBJECT_NAME    = STARLINK-36852
OBJECT_ID      = 2026-037B
CENTER_NAME    = EARTH
REF_FRAME      = TEME
TIME_SYSTEM    = UTC
MEAN_ELEMENT_THEORY = SGP/SGP4

EPOCH          = 2026-03-18T20:00:01.999008
MEAN_MOTION    = 15.61090046
ECCENTRICITY   = .0001633
INCLINATION    = 42.9995
RA_OF_ASC_NODE = 143.0020
ARG_OF_PERICENTER = 275.6423
MEAN_ANOMALY   = 110.8595

EPHEMERIS_TYPE = 0
CLASSIFICATION_TYPE = U
NORAD_CAT_ID   = 67933
ELEMENT_SET_NO = 999
REV_AT_EPOCH   = 466
BSTAR          = -.25033E-1
MEAN_MOTION_DOT = -.1915862E-1
MEAN_MOTION_DDOT = 0

