STARLINK-36383          
1 67922U 26036U   26077.72641854  .00486890  00000+0  21844-2 0  9997
2 67922  43.0001 194.2338 0001514 246.0133 114.0581 15.82042938  5104
STARLINK-36406          
1 67923U 26036V   26077.83335647  .00089259  00000+0  15147-2 0  9997
2 67923  43.0006 195.6158 0002012 282.8487 225.3017 15.50491296  5110
STARLINK-36714          
1 67924U 26036W   26077.83335647  .00091557  00000+0  15517-2 0  9993
2 67924  43.0005 194.6833 0001808 295.5186 230.0122 15.50516705  5111
STARLINK-36726          
1 67925U 26036X   26077.83335647  .00082323  00000+0  13972-2 0  9998
2 67925  43.0010 195.3114 0001574 280.9188 350.2626 15.50520670  5118
STARLINK-36758          
1 67926U 26036Y   26077.83335647  .00090817  00000+0  15393-2 0  9995
2 67926  43.0005 194.8327 0001766 279.4975 185.4148 15.50516981  5110
STARLINK-36728          
1 67927U 26036Z   26077.83335647  .00105272  00000+0  17836-2 0  9992
2 67927  43.0005 194.5818 0001818 306.7870 259.5230 15.50462476  5113
STARLINK-36771          
1 67928U 26036AA  26077.83335647  .00105132  00000+0  17769-2 0  9993
2 67928  43.0006 194.7108 0001571 274.8736 239.5014 15.50531859  5111
STARLINK-36809          
1 67929U 26036AB  26077.83335647  .00091735  00000+0  15546-2 0  9998
2 67929  43.0006 194.6876 0001538 266.0242 257.5160 15.50518228  5118
STARLINK-36865          
1 67930U 26036AC  26077.83335647 -.01559867  00000+0 -26823-1 0  9997
2 67930  43.0010 194.3665 0001293 287.6766   5.9643 15.53182315  5114
STARLINK-36781          
1 67931U 26036AD  26077.83335647 -.02153470  00000+0 -38118-1 0  9999
2 67931  43.0009 194.4138 0001682 277.8684 356.5826 15.52899684  5112
STARLINK-36301          
1 67932U 26037A   26076.91253539  .00325484  00000+0  14845-2 0  9992
2 67932  42.9982 148.1836 0001165   1.0372 359.0502 15.82107586  4551
STARLINK-36852          
1 67933U 26037B   26077.83335647 -.01915862  00000+0 -25033-1 0  9994
2 67933  42.9995 143.0020 0001633 275.6423 110.8595 15.61090046  4667
